start=new Date('2023-06-05T00:00:00.000Z').valueOf();
sats=[{"OBJECT_NAME":"STARLINK-5841","FILE":"3925173","OBJECT_TYPE":"PAYLOAD","COUNTRY_CODE":"US","PERIAPSIS":"356.647","ELEMENT_SET_NO":"999","DECAY_DATE":null,"REF_FRAME":"TEME","RA_OF_ASC_NODE":"175.2720","INCLINATION":"69.9988","GP_ID":"233221783","TLE_LINE2":"2 56493  69.9988 175.2720 0003644 264.4988  95.5792 15.69929081  3932","CENTER_NAME":"EARTH","SITE":"AFWTR","PERIOD":"91.724","REV_AT_EPOCH":"393","NORAD_CAT_ID":"56493","BSTAR":"0.00002593000000","ECCENTRICITY":"0.00036440","LAUNCH_DATE":"2023-05-10","MEAN_MOTION_DDOT":"0.0000000000000","ARG_OF_PERICENTER":"264.4988","MEAN_ANOMALY":"95.5792","CLASSIFICATION_TYPE":"U","MEAN_MOTION":"15.69929081","EPOCH":"2023-06-04T15:01:01.349184","SEMIMAJOR_AXIS":"6737.237","OBJECT_ID":"2023-064AX","MEAN_ELEMENT_THEORY":"SGP4","TLE_LINE1":"1 56493U 23064AX  23155.62571006  .00002907  00000-0  25930-4 0  9996","TIME_SYSTEM":"UTC","APOAPSIS":"361.557","RCS_SIZE":"LARGE","MEAN_MOTION_DOT":"0.00002907","EPHEMERIS_TYPE":"0"},{"EPOCH":"2023-06-04T15:01:55.938432","SEMIMAJOR_AXIS":"6737.245","MEAN_MOTION":"15.69926159","CLASSIFICATION_TYPE":"U","MEAN_ANOMALY":"91.5366","ARG_OF_PERICENTER":"268.5435","MEAN_ELEMENT_THEORY":"SGP4","OBJECT_ID":"2023-064AY","BSTAR":"0.00001492700000","ECCENTRICITY":"0.00034510","MEAN_MOTION_DDOT":"0.0000000000000","LAUNCH_DATE":"2023-05-10","EPHEMERIS_TYPE":"0","MEAN_MOTION_DOT":"0.00001582","RCS_SIZE":"LARGE","TLE_LINE1":"1 56494U 23064AY  23155.62634188  .00001582  00000-0  14927-4 0  9990","TIME_SYSTEM":"UTC","APOAPSIS":"361.435","INCLINATION":"69.9975","REF_FRAME":"TEME","RA_OF_ASC_NODE":"175.2750","DECAY_DATE":null,"TLE_LINE2":"2 56494  69.9975 175.2750 0003451 268.5435  91.5366 15.69926159  3936","GP_ID":"233221897","FILE":"3925173","OBJECT_NAME":"STARLINK-5530","ELEMENT_SET_NO":"999","PERIAPSIS":"356.785","OBJECT_TYPE":"PAYLOAD","COUNTRY_CODE":"US","PERIOD":"91.724","NORAD_CAT_ID":"56494","REV_AT_EPOCH":"393","SITE":"AFWTR","CENTER_NAME":"EARTH"},{"APOAPSIS":"361.426","TIME_SYSTEM":"UTC","TLE_LINE1":"1 56495U 23064AZ  23155.62602542  .00003447  00000-0  30414-4 0  9991","RCS_SIZE":"LARGE","MEAN_MOTION_DOT":"0.00003447","EPHEMERIS_TYPE":"0","LAUNCH_DATE":"2023-05-10","MEAN_MOTION_DDOT":"0.0000000000000","BSTAR":"0.00003041400000","ECCENTRICITY":"0.00034700","OBJECT_ID":"2023-064AZ","MEAN_ELEMENT_THEORY":"SGP4","ARG_OF_PERICENTER":"265.0537","CLASSIFICATION_TYPE":"U","MEAN_ANOMALY":"95.0263","MEAN_MOTION":"15.69933831","EPOCH":"2023-06-04T15:01:28.596288","SEMIMAJOR_AXIS":"6737.223","CENTER_NAME":"EARTH","SITE":"AFWTR","REV_AT_EPOCH":"393","NORAD_CAT_ID":"56495","PERIOD":"91.724","OBJECT_TYPE":"PAYLOAD","COUNTRY_CODE":"US","PERIAPSIS":"356.750","ELEMENT_SET_NO":"999","OBJECT_NAME":"STARLINK-5529","FILE":"3925173","GP_ID":"233221840","TLE_LINE2":"2 56495  69.9987 175.2730 0003470 265.0537  95.0263 15.69933831  3934","DECAY_DATE":null,"REF_FRAME":"TEME","RA_OF_ASC_NODE":"175.2730","INCLINATION":"69.9987"},{"PERIOD":"91.722","NORAD_CAT_ID":"56496","REV_AT_EPOCH":"393","SITE":"AFWTR","CENTER_NAME":"EARTH","INCLINATION":"69.9989","RA_OF_ASC_NODE":"175.2733","REF_FRAME":"TEME","DECAY_DATE":null,"TLE_LINE2":"2 56496  69.9989 175.2733 0003445 264.9524  95.1279 15.69958048  3931","GP_ID":"233221726","FILE":"3925173","OBJECT_NAME":"STARLINK-5526","ELEMENT_SET_NO":"999","PERIAPSIS":"356.698","OBJECT_TYPE":"PAYLOAD","COUNTRY_CODE":"US","EPHEMERIS_TYPE":"0","MEAN_MOTION_DOT":"0.00037422","RCS_SIZE":"LARGE","TIME_SYSTEM":"UTC","TLE_LINE1":"1 56496U 23064BA  23155.62592425  .00037422  00000-0  31116-3 0  9999","APOAPSIS":"361.340","EPOCH":"2023-06-04T15:01:19.855200","SEMIMAJOR_AXIS":"6737.154","MEAN_MOTION":"15.69958048","MEAN_ANOMALY":"95.1279","CLASSIFICATION_TYPE":"U","ARG_OF_PERICENTER":"264.9524","MEAN_ELEMENT_THEORY":"SGP4","OBJECT_ID":"2023-064BA","BSTAR":"0.00031116000000","ECCENTRICITY":"0.00034450","MEAN_MOTION_DDOT":"0.0000000000000","LAUNCH_DATE":"2023-05-10"},{"APOAPSIS":"361.393","TIME_SYSTEM":"UTC","TLE_LINE1":"1 56497U 23064BB  23155.62581549  .00002137  00000-0  19536-4 0  9993","RCS_SIZE":"LARGE","MEAN_MOTION_DOT":"0.00002137","EPHEMERIS_TYPE":"0","LAUNCH_DATE":"2023-05-10","MEAN_MOTION_DDOT":"0.0000000000000","ECCENTRICITY":"0.00034030","BSTAR":"0.00001953600000","OBJECT_ID":"2023-064BB","MEAN_ELEMENT_THEORY":"SGP4","ARG_OF_PERICENTER":"266.2771","MEAN_ANOMALY":"93.8036","CLASSIFICATION_TYPE":"U","MEAN_MOTION":"15.69929538","SEMIMAJOR_AXIS":"6737.236","EPOCH":"2023-06-04T15:01:10.458336","CENTER_NAME":"EARTH","SITE":"AFWTR","REV_AT_EPOCH":"393","NORAD_CAT_ID":"56497","PERIOD":"91.724","COUNTRY_CODE":"US","OBJECT_TYPE":"PAYLOAD","PERIAPSIS":"356.808","ELEMENT_SET_NO":"999","OBJECT_NAME":"STARLINK-5527","FILE":"3925173","GP_ID":"233221554","TLE_LINE2":"2 56497  69.9988 175.2711 0003403 266.2771  93.8036 15.69929538  3938","DECAY_DATE":null,"REF_FRAME":"TEME","RA_OF_ASC_NODE":"175.2711","INCLINATION":"69.9988"},{"MEAN_MOTION_DDOT":"0.0000000000000","LAUNCH_DATE":"2023-05-10","BSTAR":"0.00000700260000","ECCENTRICITY":"0.00037910","OBJECT_ID":"2023-064BC","MEAN_ELEMENT_THEORY":"SGP4","CLASSIFICATION_TYPE":"U","MEAN_ANOMALY":"94.8961","ARG_OF_PERICENTER":"265.1802","SEMIMAJOR_AXIS":"6737.254","EPOCH":"2023-06-04T15:01:37.961184","MEAN_MOTION":"15.69923112","APOAPSIS":"361.673","TLE_LINE1":"1 56498U 23064BC  23155.62613381  .00000629  00000-0  70026-5 0  9990","TIME_SYSTEM":"UTC","MEAN_MOTION_DOT":"0.00000629","RCS_SIZE":"LARGE","EPHEMERIS_TYPE":"0","OBJECT_TYPE":"PAYLOAD","COUNTRY_CODE":"US","ELEMENT_SET_NO":"999","PERIAPSIS":"356.565","OBJECT_NAME":"STARLINK-5522","FILE":"3925173","GP_ID":"233221669","TLE_LINE2":"2 56498  69.9989 175.2751 0003791 265.1802  94.8961 15.69923112  3937","REF_FRAME":"TEME","RA_OF_ASC_NODE":"175.2751","DECAY_DATE":null,"INCLINATION":"69.9989","CENTER_NAME":"EARTH","SITE":"AFWTR","REV_AT_EPOCH":"393","NORAD_CAT_ID":"56498","PERIOD":"91.724"},{"PERIOD":"91.640","NORAD_CAT_ID":"56503","REV_AT_EPOCH":"456","SITE":"AFETR","CENTER_NAME":"EARTH","INCLINATION":"43.0001","RA_OF_ASC_NODE":"315.8459","REF_FRAME":"TEME","DECAY_DATE":null,"TLE_LINE2":"2 56503  43.0001 315.8459 0002023 269.5060  90.5576 15.71359755  4564","GP_ID":"233187020","FILE":"3924842","OBJECT_NAME":"STARLINK-5775","ELEMENT_SET_NO":"999","PERIAPSIS":"353.650","OBJECT_TYPE":"PAYLOAD","COUNTRY_CODE":"US","EPHEMERIS_TYPE":"0","MEAN_MOTION_DOT":"0.00003063","RCS_SIZE":"LARGE","TLE_LINE1":"1 56503U 23065A   23155.50437228  .00003063  00000-0  26793-4 0  9995","TIME_SYSTEM":"UTC","APOAPSIS":"356.374","EPOCH":"2023-06-04T12:06:17.764992","SEMIMAJOR_AXIS":"6733.147","MEAN_MOTION":"15.71359755","CLASSIFICATION_TYPE":"U","MEAN_ANOMALY":"90.5576","ARG_OF_PERICENTER":"269.5060","MEAN_ELEMENT_THEORY":"SGP4","OBJECT_ID":"2023-065A","ECCENTRICITY":"0.00020230","BSTAR":"0.00002679300000","MEAN_MOTION_DDOT":"0.0000000000000","LAUNCH_DATE":"2023-05-14"},{"MEAN_ELEMENT_THEORY":"SGP4","OBJECT_ID":"2023-065B","EPOCH":"2023-06-04T19:43:38.418816","SEMIMAJOR_AXIS":"6733.094","MEAN_MOTION":"15.71378136","CLASSIFICATION_TYPE":"U","MEAN_ANOMALY":"80.1804","ARG_OF_PERICENTER":"279.8834","MEAN_MOTION_DDOT":"0.0000000000000","LAUNCH_DATE":"2023-05-14","BSTAR":"0.00025939000000","ECCENTRICITY":"0.00020320","EPHEMERIS_TYPE":"0","MEAN_MOTION_DOT":"0.00033733","RCS_SIZE":"LARGE","APOAPSIS":"356.328","TIME_SYSTEM":"UTC","TLE_LINE1":"1 56504U 23065B   23155.82197244  .00033733  00000-0  25939-3 0  9999","TLE_LINE2":"2 56504  42.9998 313.9262 0002032 279.8834  80.1804 15.71378136  4611","GP_ID":"233221955","INCLINATION":"42.9998","RA_OF_ASC_NODE":"313.9262","REF_FRAME":"TEME","DECAY_DATE":null,"ELEMENT_SET_NO":"999","PERIAPSIS":"353.591","OBJECT_TYPE":"PAYLOAD","COUNTRY_CODE":"US","FILE":"3925173","OBJECT_NAME":"STARLINK-5716","NORAD_CAT_ID":"56504","REV_AT_EPOCH":"461","PERIOD":"91.639","SITE":"AFETR","CENTER_NAME":"EARTH"},{"INCLINATION":"42.9998","DECAY_DATE":null,"REF_FRAME":"TEME","RA_OF_ASC_NODE":"313.9262","TLE_LINE2":"2 56505  42.9998 313.9262 0002294 275.7961  84.2646 15.71367343  4615","GP_ID":"233221784","FILE":"3925173","OBJECT_NAME":"STARLINK-5763","PERIAPSIS":"353.446","ELEMENT_SET_NO":"999","COUNTRY_CODE":"US","OBJECT_TYPE":"PAYLOAD","PERIOD":"91.640","NORAD_CAT_ID":"56505","REV_AT_EPOCH":"461","SITE":"AFETR","CENTER_NAME":"EARTH","MEAN_MOTION":"15.71367343","EPOCH":"2023-06-04T19:43:30.261792","SEMIMAJOR_AXIS":"6733.125","ARG_OF_PERICENTER":"275.7961","CLASSIFICATION_TYPE":"U","MEAN_ANOMALY":"84.2646","MEAN_ELEMENT_THEORY":"SGP4","OBJECT_ID":"2023-065C","BSTAR":"0.00034714000000","ECCENTRICITY":"0.00022940","LAUNCH_DATE":"2023-05-14","MEAN_MOTION_DDOT":"0.0000000000000","EPHEMERIS_TYPE":"0","RCS_SIZE":"LARGE","MEAN_MOTION_DOT":"0.00045342","TLE_LINE1":"1 56505U 23065C   23155.82187803  .00045342  00000-0  34714-3 0  9990","TIME_SYSTEM":"UTC","APOAPSIS":"356.535"},{"CENTER_NAME":"EARTH","SITE":"AFETR","REV_AT_EPOCH":"461","NORAD_CAT_ID":"56506","PERIOD":"91.640","OBJECT_TYPE":"PAYLOAD","COUNTRY_CODE":"US","PERIAPSIS":"353.496","ELEMENT_SET_NO":"999","OBJECT_NAME":"STARLINK-5340","FILE":"3925173","GP_ID":"233221898","TLE_LINE2":"2 56506  42.9999 313.9274 0002254 272.9924  87.0686 15.71359034  4617","DECAY_DATE":null,"RA_OF_ASC_NODE":"313.9274","REF_FRAME":"TEME","INCLINATION":"42.9999","APOAPSIS":"356.532","TIME_SYSTEM":"UTC","TLE_LINE1":"1 56506U 23065D   23155.82208235  .00013224  00000-0  10411-3 0  9996","RCS_SIZE":"LARGE","MEAN_MOTION_DOT":"0.00013224","EPHEMERIS_TYPE":"0","LAUNCH_DATE":"2023-05-14","MEAN_MOTION_DDOT":"0.0000000000000","ECCENTRICITY":"0.00022540","BSTAR":"0.00010411000000","OBJECT_ID":"2023-065D","MEAN_ELEMENT_THEORY":"SGP4","ARG_OF_PERICENTER":"272.9924","CLASSIFICATION_TYPE":"U","MEAN_ANOMALY":"87.0686","MEAN_MOTION":"15.71359034","EPOCH":"2023-06-04T19:43:47.915040","SEMIMAJOR_AXIS":"6733.149"}];
